PROPCUBE 3              
1 40973U 15058K   26068.73202292  .00005546  00000+0  46586-3 0  9992
2 40973  64.7688 203.0958 0123527  99.6156 261.8939 14.93528956 99948
STARLINK-5079           
1 53999U 22125AM  26068.68937601  .00000199  00000+0  30586-4 0  9993
2 53999  53.2169 214.0405 0001225  83.0042 277.1089 15.08839872189469
